NORAD_CAT_ID,OBJECT_NAME,OBJECT_TYPE,EPOCH,MEAN_MOTION,ECCENTRICITY,INCLINATION,RA_OF_ASC_NODE,ARG_OF_PERICENTER,MEAN_ANOMALY,BSTAR,MEAN_MOTION_DOT,MEAN_MOTION_DDOT,TLE_LINE0,TLE_LINE1,TLE_LINE2,SEMIMAJOR_AXIS,PERIOD,APOGEE,PERIGEE,DECAYED
53911.0,STARLINK-5048,PAYLOAD,2023-10-13 08:31:34,15.08858589,0.0001561,53.2162,297.2991,90.4204,269.6967,0.00059036,9.125e-05,0.0,0 STARLINK-5048,1 53911U 22119AB  23286.35526297  .00009125  00000-0  59036-3 0  9997,2 53911  53.2162 297.2991 0001561  90.4204 269.6967 15.08858589 58804,6917.824,95.436,540.768,538.609,0.0
53911.0,STARLINK-5048,PAYLOAD,2023-10-13 18:03:53,15.08856126,0.0001549,53.2169,295.515,99.9811,260.1356,0.00050339,7.736e-05,0.0,0 STARLINK-5048,1 53911U 22119AB  23286.75270242  .00007736  00000-0  50339-3 0  9990,2 53911  53.2169 295.5150 0001549  99.9811 260.1356 15.08856126 58862,6917.831,95.437,540.768,538.625,0.0
53911.0,STARLINK-5048,PAYLOAD,2023-10-14 06:46:58,15.0885549,0.0001555,53.2156,293.136,99.3751,260.7417,0.00029774,4.456e-05,0.0,0 STARLINK-5048,1 53911U 22119AB  23287.28261829  .00004456  00000-0  29774-3 0  9995,2 53911  53.2156 293.1360 0001555  99.3751 260.7417 15.08855490 58945,6917.833,95.437,540.774,538.622,0.0
53911.0,STARLINK-5048,PAYLOAD,2023-10-14 17:54:40,15.08847844,0.0001466,53.2155,291.0543,90.2078,269.9082,7.9785e-05,9.82e-06,0.0,0 STARLINK-5048,1 53911U 22119AB  23287.74629954  .00000982  00000-0  79785-4 0  9991,2 53911  53.2155 291.0543 0001466  90.2078 269.9082 15.08847844 59019,6917.856,95.437,540.736,538.707,0.0
53911.0,STARLINK-5048,PAYLOAD,2023-10-15 09:48:32,15.08835274,0.000179,53.2174,288.0785,103.0648,257.0544,-0.00014191,-2.546e-05,0.0,0 STARLINK-5048,1 53911U 22119AB  23288.40870543 -.00002546  00000-0 -14191-3 0  9996,2 53911  53.2174 288.0785 0001790 103.0648 257.0544 15.08835274 59116,6917.895,95.438,540.998,538.522,0.0
53911.0,STARLINK-5048,PAYLOAD,2023-10-15 17:45:28,15.08837333,0.0001797,53.2185,286.5913,102.7342,257.3851,-7.7666e-05,-1.524e-05,0.0,0 STARLINK-5048,1 53911U 22119AB  23288.73990760 -.00001524  00000-0 -77666-4 0  9998,2 53911  53.2185 286.5913 0001797 102.7342 257.3851 15.08837333 59581,6917.889,95.438,540.997,538.51,0.0
53911.0,STARLINK-5048,PAYLOAD,2023-10-16 03:17:46,15.08847257,0.000172,53.2158,284.8077,100.5253,259.5933,0.00018199,2.61e-05,0.0,0 STARLINK-5048,1 53911U 22119AB  23289.13734327  .00002610  00000-0  18199-3 0  9998,2 53911  53.2158 284.8077 0001720 100.5253 259.5933 15.08847257 59228,6917.858,95.437,540.913,538.533,0.0
53911.0,STARLINK-5048,PAYLOAD,2023-10-16 06:28:32,15.08848077,0.0001458,53.2152,284.214,95.8764,264.2394,0.00023485,3.452e-05,0.0,0 STARLINK-5048,1 53911U 22119AB  23289.26982275  .00003452  00000-0  23485-3 0  9998,2 53911  53.2152 284.2140 0001458  95.8764 264.2394 15.08848077 59661,6917.856,95.437,540.729,538.712,0.0
53911.0,STARLINK-5048,PAYLOAD,2023-10-17 15:51:38,15.08846005,0.000152,53.2163,277.9667,90.6319,269.4847,0.00017844,2.553e-05,0.0,0 STARLINK-5048,1 53911U 22119AB  23290.66086436  .00002553  00000-0  17844-3 0  9991,2 53911  53.2163 277.9667 0001520  90.6319 269.4847 15.08846005 59451,6917.862,95.437,540.779,538.676,0.0
53911.0,STARLINK-5048,PAYLOAD,2023-10-18 02:59:20,15.08841071,0.0001735,53.218,275.8886,101.75,258.3686,2.5977e-05,1.25e-06,0.0,0 STARLINK-5048,1 53911U 22119AB  23291.12454642  .00000125  00000-0  25977-4 0  9991,2 53911  53.2180 275.8886 0001735 101.7500 258.3686 15.08841071 59944,6917.877,95.437,540.942,538.542,0.0
53911.0,STARLINK-5048,PAYLOAD,2023-10-18 06:10:07,15.08842149,0.0001539,53.2179,275.2955,95.1127,265.0041,6.3477e-05,7.22e-06,0.0,0 STARLINK-5048,1 53911U 22119AB  23291.25702631  .00000722  00000-0  63477-4 0  9999,2 53911  53.2179 275.2955 0001539  95.1127 265.0041 15.08842149 59549,6917.874,95.437,540.803,538.674,0.0
53911.0,STARLINK-5048,PAYLOAD,2023-10-18 15:42:25,15.08844733,0.000136,53.2167,273.5091,89.2645,270.8503,5.9236e-05,6.55e-06,0.0,0 STARLINK-5048,1 53911U 22119AB  23291.65446473  .00000655  00000-0  59236-4 0  9995,2 53911  53.2167 273.5091 0001360  89.2645 270.8503 15.08844733 60022,6917.866,95.437,540.672,538.79,0.0
53911.0,STARLINK-5048,PAYLOAD,2023-10-19 06:00:54,15.08845155,0.0001219,53.2174,270.8357,100.5856,259.5274,0.00012946,1.773e-05,0.0,0 STARLINK-5048,1 53911U 22119AB  23292.25062503  .00001773  00000-0  12946-3 0  9998,2 53911  53.2174 270.8357 0001219 100.5856 259.5274 15.08845155 60117,6917.865,95.437,540.573,538.886,0.0
53911.0,STARLINK-5048,PAYLOAD,2023-10-19 15:33:12,15.08849059,5e-05,53.2168,269.0507,98.1688,261.936,3.29e-05,2.36e-06,0.0,0 STARLINK-5048,1 53911U 22119AB  23292.64806088  .00000236  00000-0  32900-4 0  9991,2 53911  53.2168 269.0507 0000500  98.1688 261.9360 15.08849059 59752,6917.853,95.437,540.064,539.372,0.0
53911.0,STARLINK-5048,PAYLOAD,2023-10-20 07:27:04,15.08846935,0.0001588,53.217,266.0749,94.1978,265.9196,0.00018455,2.651e-05,0.0,0 STARLINK-5048,1 53911U 22119AB  23293.31046515  .00002651  00000-0  18455-3 0  9998,2 53911  53.2170 266.0749 0001588  94.1978 265.9196 15.08846935 59857,6917.859,95.437,540.823,538.626,0.0
53911.0,STARLINK-5048,PAYLOAD,2023-10-21 02:31:42,15.08836602,0.0001731,53.2183,262.5052,85.3679,274.7511,5.7072e-05,6.2e-06,0.0,0 STARLINK-5048,1 53911U 22119AB  23294.10535319  .00000620  00000-0  57072-4 0  9994,2 53911  53.2183 262.5052 0001731  85.3679 274.7511 15.08836602 59971,6917.891,95.438,540.953,538.558,0.0
53911.0,STARLINK-5048,PAYLOAD,2023-10-21 07:17:51,15.08840122,0.000166,53.218,261.612,96.8199,263.2982,8.2751e-05,1.029e-05,0.0,0 STARLINK-5048,1 53911U 22119AB  23294.30407137  .00001029  00000-0  82751-4 0  9998,2 53911  53.2180 261.6120 0001660  96.8199 263.2982 15.08840122 60428,6917.88,95.438,540.893,538.597,0.0
53911.0,STARLINK-5048,PAYLOAD,2023-10-21 21:36:20,15.08839935,0.0001495,53.2181,258.9364,94.9091,265.2072,0.0001542,2.167e-05,0.0,0 STARLINK-5048,1 53911U 22119AB  23294.90023259  .00002167  00000-0  15420-3 0  9995,2 53911  53.2181 258.9364 0001495  94.9091 265.2072 15.08839935 60516,6917.881,95.438,540.78,538.711,0.0
53911.0,STARLINK-5048,PAYLOAD,2023-10-22 03:57:52,15.08849975,0.0001683,53.2174,257.7504,82.742,277.3763,0.00029312,4.381e-05,0.0,0 STARLINK-5048,1 53911U 22119AB  23295.16518904  .00004381  00000-0  29312-3 0  9995,2 53911  53.2174 257.7504 0001683  82.7420 277.3763 15.08849975 60135,6917.85,95.437,540.879,538.551,0.0
53911.0,STARLINK-5048,PAYLOAD,2023-10-22 15:05:34,15.08843652,0.0001756,53.2173,255.6724,61.7717,298.3452,0.00019846,2.872e-05,0.0,0 STARLINK-5048,1 53911U 22119AB  23295.62887142  .00002872  00000-0  19846-3 0  9993,2 53911  53.2173 255.6724 0001756  61.7717 298.3452 15.08843652 60204,6917.869,95.437,540.949,538.519,0.0
53911.0,STARLINK-5048,PAYLOAD,2023-10-23 02:13:16,15.08834385,0.0001691,53.2171,253.5829,103.0484,257.0697,4.24e-05,3.87e-06,0.0,0 STARLINK-5048,1 53911U 22119AB  23296.09255776  .00000387  00000-0  42400-4 0  9999,2 53911  53.2171 253.5829 0001691 103.0484 257.0697 15.08834385 60277,6917.898,95.438,540.932,538.593,0.0
53911.0,STARLINK-5048,PAYLOAD,2023-10-23 03:48:40,15.08830885,0.0001714,53.2178,253.2873,91.656,268.4629,-2.2519e-05,-6.46e-06,0.0,0 STARLINK-5048,1 53911U 22119AB  23296.15880032 -.00000646  00000-0 -22519-4 0  9994,2 53911  53.2178 253.2873 0001714  91.6560 268.4629 15.08830885 60703,6917.908,95.438,540.959,538.588,0.0
53911.0,STARLINK-5048,PAYLOAD,2023-10-24 03:39:26,15.08852652,0.0001594,53.2177,248.8284,86.566,273.5514,0.00019681,2.847e-05,0.0,0 STARLINK-5048,1 53911U 22119AB  23297.15239051  .00002847  00000-0  19681-3 0  9992,2 53911  53.2177 248.8284 0001594  86.5660 273.5514 15.08852652 60434,6917.842,95.437,540.809,538.604,0.0
53911.0,STARLINK-5048,PAYLOAD,2023-10-24 06:50:12,15.08855107,0.0001537,53.2176,248.2332,90.8021,269.3147,0.00025361,3.752e-05,0.0,0 STARLINK-5048,1 53911U 22119AB  23297.28486873  .00003752  00000-0  25361-3 0  9990,2 53911  53.2176 248.2332 0001537  90.8021 269.3147 15.08855107 60878,6917.834,95.437,540.762,538.636,0.0
53911.0,STARLINK-5048,PAYLOAD,2023-10-25 05:05:36,15.0885832,0.0001557,53.217,244.0709,90.6978,269.4193,0.00060519,9.362e-05,0.0,0 STARLINK-5048,1 53911U 22119AB  23298.21222975  .00009362  00000-0  60519-3 0  9992,2 53911  53.2170 244.0709 0001557  90.6978 269.4193 15.08858320 60596,6917.824,95.436,540.766,538.612,0.0
53911.0,STARLINK-5048,PAYLOAD,2023-10-25 20:59:28,15.08848804,0.0001693,53.2175,241.097,92.7647,267.3539,0.00038135,5.788e-05,0.0,0 STARLINK-5048,1 53911U 22119AB  23298.87463253  .00005788  00000-0  38135-3 0  9997,2 53911  53.2175 241.0970 0001693  92.7647 267.3539 15.08848804 61111,6917.853,95.437,540.89,538.547,0.0
53911.0,STARLINK-5048,PAYLOAD,2023-10-26 03:21:00,15.08845071,0.0001657,53.2172,239.9087,93.618,266.5002,8.6521e-05,1.089e-05,0.0,0 STARLINK-5048,1 53911U 22119AB  23299.13959338  .00001089  00000-0  86521-4 0  9994,2 53911  53.2172 239.9087 0001657  93.6180 266.5002 15.08845071 60731,6917.865,95.437,540.876,538.584,0.0
53911.0,STARLINK-5048,PAYLOAD,2023-10-26 06:31:47,15.08844743,0.0001549,53.2169,239.3126,83.3053,276.8116,0.00017173,2.446e-05,0.0,0 STARLINK-5048,1 53911U 22119AB  23299.27207203  .00002446  00000-0  17173-3 0  9990,2 53911  53.2169 239.3126 0001549  83.3053 276.8116 15.08844743 61174,6917.866,95.437,540.802,538.659,0.0
53911.0,STARLINK-5048,PAYLOAD,2023-10-27 04:47:10,15.08861634,0.0001539,53.2168,235.1502,99.5713,260.5453,0.00084436,0.00013183,0.0,0 STARLINK-5048,1 53911U 22119AB  23300.19942756  .00013183  00000-0  84436-3 0  9999,2 53911  53.2168 235.1502 0001539  99.5713 260.5453 15.08861634 60896,6917.814,95.436,540.744,538.615,0.0
53911.0,STARLINK-5048,PAYLOAD,2023-10-27 23:51:48,15.08837339,0.0001291,53.2163,231.5829,87.3357,272.7783,2.7323e-05,1.47e-06,0.0,0 STARLINK-5048,1 53911U 22119AB  23300.99431421  .00000147  00000-0  27323-4 0  9998,2 53911  53.2163 231.5829 0001291  87.3357 272.7783 15.08837339 61018,6917.889,95.438,540.647,538.86,0.0
